OBJECT_NAME,OBJECT_ID,EPOCH,MEAN_MOTION,ECCENTRICITY,INCLINATION,RA_OF_ASC_NODE,ARG_OF_PERICENTER,MEAN_ANOMALY,EPHEMERIS_TYPE,CLASSIFICATION_TYPE,NORAD_CAT_ID,ELEMENT_SET_NO,REV_AT_EPOCH,BSTAR,MEAN_MOTION_DOT,MEAN_MOTION_DDOT
LEMUR-2-CELIJO-SB-PK,2025-276DW,2026-06-26T17:01:07.847904,15.00085304,.0008158,97.5234,248.1738,109.6648,250.5457,0,U,66781,999,2405,.50213E-3,.6207E-4,0
LEMUR-2-FINNIAN,2025-276DX,2026-06-26T03:36:06.822144,15.00460441,.00086265,97.5321,247.8587,63.2247,296.9859,0,U,66782,999,2134,.36599326E-3,.4553E-4,0
LEMUR-2-STARLIGHT,2025-276DY,2026-06-26T17:09:48.756096,14.99142514,.0014718,97.5247,248.0283,100.9513,259.3367,0,U,66783,999,3162,.53651E-3,.6484E-4,0
LEMUR-2-TARTIFLETTE,2025-276DZ,2026-06-26T17:07:25.652640,14.99153912,.0013679,97.5249,248.0342,107.9765,252.2950,0,U,66784,999,3162,.4681E-3,.565E-4,0
LEMUR-2-VUKASIN,2025-276EA,2026-06-26T16:46:26.968800,15.00424710,.0005519,97.5292,248.3400,101.8604,258.3239,0,U,66785,999,3157,.11991E-3,.1451E-4,0
LEMUR-2-HOTSPUR-TOM,2025-276EB,2026-06-26T16:57:39.896064,14.99053783,.0014759,97.5244,248.0069,99.9962,260.2928,0,U,66786,999,3155,.47128E-3,.5675E-4,0
LEMUR-2-MYRA,2025-276EC,2026-06-26T11:08:31.950816,15.00369877,.0017656,97.5222,248.0408,111.5703,248.7405,0,U,66787,999,3160,.64675E-3,.8094E-4,0
LEMUR-2 FIKRETDENGIZ,2026-004A,2026-06-26T11:30:07.644096,14.88388061,.001058,97.8014,175.8944,107.0173,253.2203,0,U,67363,999,2466,.50473E-3,.4628E-4,0
TWILIGHT-1 OBJECT B,2026-004B,2026-06-26T17:01:37.108128,14.87732942,.0010282,97.8063,176.1321,97.7645,262.4739,0,U,67364,999,2470,.19843E-3,.1756E-4,0
LEMUR-2-MARIO-SOUSA,2026-004C,2026-06-26T11:04:48.658656,14.88581950,.001012,97.7985,175.8728,108.0025,252.2295,0,U,67365,999,2467,.49098E-3,.4522E-4,0
LEMUR-2-SONNENBLUME,2026-004E,2026-06-26T06:13:56.470368,14.88359558,.0009627,97.7984,175.6549,109.9063,250.3192,0,U,67367,999,2464,.34388E-3,.3132E-4,0
LEMUR-2-WOBLER,2026-004F,2026-06-26T17:20:19.203072,14.88576497,.0009955,97.8035,176.2422,99.9016,260.3325,0,U,67368,999,2471,.4038E-3,.3708E-4,0
LEMUR-2-GRAM-E-SUE,2026-004H,2026-06-26T17:07:21.896832,14.88509765,.0008721,97.7972,176.1173,109.8319,250.3839,0,U,67370,999,2471,.23587E-3,.2139E-4,0
LEMUR-2-KATIE,2026-004AA,2026-06-26T11:44:22.166880,14.90102051,.0004737,97.8033,176.3860,74.1849,285.9891,0,U,67387,999,2469,.38064E-3,.3625E-4,0
LEMUR-2-HCS-BAZUS,2026-004AB,2026-06-26T11:42:41.420160,14.90155102,.0004234,97.8021,176.3650,73.0669,287.1013,0,U,67388,999,2469,.59968E-3,.5753E-4,0
